{"type": "FeatureCollection", "features": [ {"type": "Feature", "properties": {"norad_id": 66886, "name": "STARLINK-35900", "group": "last-30-days", "lat": -28.90416566783924, "lon": -104.23404373047055, "alt_km": 326.4974902006725, "timestamp": "2025-12-17T04:57:43.204637+00:00", "meta": {"OBJECT_NAME": "STARLINK-35900", "OBJECT_ID": "2025-283J", "EPOCH": "2025-12-16T22:00:03.000096", "MEAN_MOTION": 15.83794853, "ECCENTRICITY": 9.553e-05, "INCLINATION": 53.1556, "RA_OF_ASC_NODE": 52.7683, "ARG_OF_PERICENTER": 77.5515, "MEAN_ANOMALY": 285.2402, "EPHEMERIS_TYPE": 0, "CLASSIFICATION_TYPE": "U", "NORAD_CAT_ID": 66886, "ELEMENT_SET_NO": 999, "REV_AT_EPOCH": 310, "BSTAR": -0.0066133608, "MEAN_MOTION_DOT": -0.0131669, "MEAN_MOTION_DDOT": 0}, "tle": {"line1": "1 66886U 25283J   25350.91670139 -.01316690  00000+0 -66134-2 0  9994", "line2": "2 66886  53.1556  52.7683 0000955  77.5515 285.2402 15.83794853  3101"}}, "geometry": {"type": "Point", "coordinates": [-104.23404373047055, -28.90416566783924]}}, {"type": "Feature", "properties": {"norad_id": 66887, "name": "STARLINK-35925", "group": "last-30-days", "lat": -30.667677647939165, "lon": -102.29467262166598, "alt_km": 326.5663777748705, "timestamp": "2025-12-17T04:57:43.204647+00:00", "meta": {"OBJECT_NAME": "STARLINK-35925", "OBJECT_ID": "2025-283K", "EPOCH": "2025-12-16T22:00:03.000096", "MEAN_MOTION": 15.83796036, "ECCENTRICITY": 8.227e-05, "INCLINATION": 53.1558, "RA_OF_ASC_NODE": 52.7635, "ARG_OF_PERICENTER": 83.4255, "MEAN_ANOMALY": 281.8181, "EPHEMERIS_TYPE": 0, "CLASSIFICATION_TYPE": "U", "NORAD_CAT_ID": 66887, "ELEMENT_SET_NO": 999, "REV_AT_EPOCH": 310, "BSTAR": -0.0067555639, "MEAN_MOTION_DOT": -0.01341445, "MEAN_MOTION_DDOT": 0}, "tle": {"line1": "1 66887U 25283K   25350.91670139 -.01341445  00000+0 -67556-2 0  9990", "line2": "2 66887  53.1558  52.7635 0000822  83.4255 281.8181 15.83796036  3102"}}, "geometry": {"type": "Point", "coordinates": [-102.29467262166598, -30.667677647939165]}}, {"type": "Feature", "properties": {"norad_id": 66888, "name": "STARLINK-35919", "group": "last-30-days", "lat": -32.392600831368576, "lon": -100.29418253265925, "alt_km": 326.6823399808036, "timestamp": "2025-12-17T04:57:43.204655+00:00", "meta": {"OBJECT_NAME": "STARLINK-35919", "OBJECT_ID": "2025-283L", "EPOCH": "2025-12-16T22:00:03.000096", "MEAN_MOTION": 15.83797295, "ECCENTRICITY": 7.147e-05, "INCLINATION": 53.1557, "RA_OF_ASC_NODE": 52.7581, "ARG_OF_PERICENTER": 84.5478, "MEAN_ANOMALY": 283.1374, "EPHEMERIS_TYPE": 0, "CLASSIFICATION_TYPE": "U", "NORAD_CAT_ID": 66888, "ELEMENT_SET_NO": 999, "REV_AT_EPOCH": 310, "BSTAR": -0.0069126972, "MEAN_MOTION_DOT": -0.01368649, "MEAN_MOTION_DDOT": 0}, "tle": {"line1": "1 66888U 25283L   25350.91670139 -.01368649  00000+0 -69127-2 0  9992", "line2": "2 66888  53.1557  52.7581 0000714  84.5478 283.1374 15.83797295  3108"}}, "geometry": {"type": "Point", "coordinates": [-100.29418253265925, -32.392600831368576]}}, {"type": "Feature", "properties": {"norad_id": 66889, "name": "STARLINK-35852", "group": "last-30-days", "lat": -34.27774745482242, "lon": -97.97049680196879, "alt_km": 326.96647254934396, "timestamp": "2025-12-17T04:57:43.204664+00:00", "meta": {"OBJECT_NAME": "STARLINK-35852", "OBJECT_ID": "2025-283M", "EPOCH": "2025-12-16T22:00:03.000096", "MEAN_MOTION": 15.8377735, "ECCENTRICITY": 7.304e-05, "INCLINATION": 53.1552, "RA_OF_ASC_NODE": 52.752, "ARG_OF_PERICENTER": 79.0898, "MEAN_ANOMALY": 291.3417, "EPHEMERIS_TYPE": 0, "CLASSIFICATION_TYPE": "U", "NORAD_CAT_ID": 66889, "ELEMENT_SET_NO": 999, "REV_AT_EPOCH": 310, "BSTAR": -0.0070913887, "MEAN_MOTION_DOT": -0.01426016, "MEAN_MOTION_DDOT": 0}, "tle": {"line1": "1 66889U 25283M   25350.91670139 -.01426016  00000+0 -70914-2 0  9992", "line2": "2 66889  53.1552  52.7520 0000730  79.0898 291.3417 15.83777350  3109"}}, "geometry": {"type": "Point", "coordinates": [-97.97049680196879, -34.27774745482242]}}, {"type": "Feature", "properties": {"norad_id": 66890, "name": "STARLINK-35885", "group": "last-30-days", "lat": -36.03943771322113, "lon": -95.647395177133, "alt_km": 327.30623696195016, "timestamp": "2025-12-17T04:57:43.204673+00:00", "meta": {"OBJECT_NAME": "STARLINK-35885", "OBJECT_ID": "2025-283N", "EPOCH": "2025-12-16T22:00:03.000096", "MEAN_MOTION": 15.83753291, "ECCENTRICITY": 9.59e-05, "INCLINATION": 53.1555, "RA_OF_ASC_NODE": 52.7468, "ARG_OF_PERICENTER": 79.1951, "MEAN_ANOMALY": 293.8636, "EPHEMERIS_TYPE": 0, "CLASSIFICATION_TYPE": "U", "NORAD_CAT_ID": 66890, "ELEMENT_SET_NO": 999, "REV_AT_EPOCH": 310, "BSTAR": -0.0071935495, "MEAN_MOTION_DOT": -0.01442907, "MEAN_MOTION_DDOT": 0}, "tle": {"line1": "1 66890U 25283N   25350.91670139 -.01442907  00000+0 -71935-2 0  9995", "line2": "2 66890  53.1555  52.7468 0000959  79.1951 293.8636 15.83753291  3107"}}, "geometry": {"type": "Point", "coordinates": [-95.647395177133, -36.03943771322113]}}, {"type": "Feature", "properties": {"norad_id": 66891, "name": "STARLINK-35855", "group": "last-30-days", "lat": -37.782208807178556, "lon": -93.17760645085497, "alt_km": 327.52159136797036, "timestamp": "2025-12-17T04:57:43.204682+00:00", "meta": {"OBJECT_NAME": "STARLINK-35855", "OBJECT_ID": "2025-283P", "EPOCH": "2025-12-16T22:00:03.000096", "MEAN_MOTION": 15.83719999, "ECCENTRICITY": 9.287e-05, "INCLINATION": 53.1555, "RA_OF_ASC_NODE": 52.7413, "ARG_OF_PERICENTER": 73.7449, "MEAN_ANOMALY": 301.9938, "EPHEMERIS_TYPE": 0, "CLASSIFICATION_TYPE": "U", "NORAD_CAT_ID": 66891, "ELEMENT_SET_NO": 999, "REV_AT_EPOCH": 310, "BSTAR": -0.0072463085, "MEAN_MOTION_DOT": -0.01450213, "MEAN_MOTION_DDOT": 0}, "tle": {"line1": "1 66891U 25283P   25350.91670139 -.01450213  00000+0 -72463-2 0  9992", "line2": "2 66891  53.1555  52.7413 0000928  73.7449 301.9938 15.83719999  3109"}}, "geometry": {"type": "Point", "coordinates": [-93.17760645085497, -37.782208807178556]}}, {"type": "Feature", "properties": {"norad_id": 66892, "name": "STARLINK-35883", "group": "last-30-days", "lat": -39.42100655487493, "lon": -90.66962040780632, "alt_km": 327.6008868409399, "timestamp": "2025-12-17T04:57:43.204691+00:00", "meta": {"OBJECT_NAME": "STARLINK-35883", "OBJECT_ID": "2025-283Q", "EPOCH": "2025-12-16T22:00:03.000096", "MEAN_MOTION": 15.83691565, "ECCENTRICITY": 8.237e-05, "INCLINATION": 53.1553, "RA_OF_ASC_NODE": 52.7355, "ARG_OF_PERICENTER": 83.4854, "MEAN_ANOMALY": 294.8468, "EPHEMERIS_TYPE": 0, "CLASSIFICATION_TYPE": "U", "NORAD_CAT_ID": 66892, "ELEMENT_SET_NO": 999, "REV_AT_EPOCH": 304, "BSTAR": -0.0073012421, "MEAN_MOTION_DOT": -0.0145812, "MEAN_MOTION_DDOT": 0}, "tle": {"line1": "1 66892U 25283Q   25350.91670139 -.01458120  00000+0 -73012-2 0  9999", "line2": "2 66892  53.1553  52.7355 0000823  83.4854 294.8468 15.83691565  3044"}}, "geometry": {"type": "Point", "coordinates": [-90.66962040780632, -39.42100655487493]}}, {"type": "Feature", "properties": {"norad_id": 66893, "name": "STARLINK-36033", "group": "last-30-days", "lat": -40.954639597741256, "lon": -88.12646441793984, "alt_km": 327.7979917186167, "timestamp": "2025-12-17T04:57:43.204700+00:00", "meta": {"OBJECT_NAME": "STARLINK-36033", "OBJECT_ID": "2025-283R", "EPOCH": "2025-12-16T22:00:03.000096", "MEAN_MOTION": 15.83675859, "ECCENTRICITY": 8.565e-05, "INCLINATION": 53.1553, "RA_OF_ASC_NODE": 52.7304, "ARG_OF_PERICENTER": 79.7889, "MEAN_ANOMALY": 301.0498, "EPHEMERIS_TYPE": 0, "CLASSIFICATION_TYPE": "U", "NORAD_CAT_ID": 66893, "ELEMENT_SET_NO": 999, "REV_AT_EPOCH": 310, "BSTAR": -0.0074168734, "MEAN_MOTION_DOT": -0.01477575, "MEAN_MOTION_DDOT": 0}, "tle": {"line1": "1 66893U 25283R   25350.91670139 -.01477575  00000+0 -74169-2 0  9999", "line2": "2 66893  53.1553  52.7304 0000856  79.7889 301.0498 15.83675859  3100"}}, "geometry": {"type": "Point", "coordinates": [-88.12646441793984, -40.954639597741256]}}, {"type": "Feature", "properties": {"norad_id": 66894, "name": "STARLINK-35718", "group": "last-30-days", "lat": -42.687218003149255, "lon": -84.97451362165879, "alt_km": 328.12433420238085, "timestamp": "2025-12-17T04:57:43.204712+00:00", "meta": {"OBJECT_NAME": "STARLINK-35718", "OBJECT_ID": "2025-283S", "EPOCH": "2025-12-16T22:00:03.000096", "MEAN_MOTION": 15.83616585, "ECCENTRICITY": 9.679e-05, "INCLINATION": 53.1555, "RA_OF_ASC_NODE": 52.7245, "ARG_OF_PERICENTER": 75.285, "MEAN_ANOMALY": 308.5431, "EPHEMERIS_TYPE": 0, "CLASSIFICATION_TYPE": "U", "NORAD_CAT_ID": 66894, "ELEMENT_SET_NO": 999, "REV_AT_EPOCH": 310, "BSTAR": -0.0074345708, "MEAN_MOTION_DOT": -0.01477046, "MEAN_MOTION_DDOT": 0}, "tle": {"line1": "1 66894U 25283S   25350.91670139 -.01477046  00000+0 -74346-2 0  9990", "line2": "2 66894  53.1555  52.7245 0000967  75.2850 308.5431 15.83616585  3109"}}, "geometry": {"type": "Point", "coordinates": [-84.97451362165879, -42.687218003149255]}}, {"type": "Feature", "properties": {"norad_id": 66895, "name": "STARLINK-35971", "group": "last-30-days", "lat": -45.505762126198036, "lon": -78.99630645591039, "alt_km": 328.3476531783881, "timestamp": "2025-12-17T04:57:43.204721+00:00", "meta": {"OBJECT_NAME": "STARLINK-35971", "OBJECT_ID": "2025-283T", "EPOCH": "2025-12-16T22:00:03.000096", "MEAN_MOTION": 15.83553955, "ECCENTRICITY": 8.25e-05, "INCLINATION": 53.1549, "RA_OF_ASC_NODE": 52.7127, "ARG_OF_PERICENTER": 74.6547, "MEAN_ANOMALY": 314.3955, "EPHEMERIS_TYPE": 0, "CLASSIFICATION_TYPE": "U", "NORAD_CAT_ID": 66895, "ELEMENT_SET_NO": 999, "REV_AT_EPOCH": 310, "BSTAR": -0.0075454587, "MEAN_MOTION_DOT": -0.01492431, "MEAN_MOTION_DDOT": 0}, "tle": {"line1": "1 66895U 25283T   25350.91670139 -.01492431  00000+0 -75455-2 0  9998", "line2": "2 66895  53.1549  52.7127 0000825  74.6547 314.3955 15.83553955  3108"}}, "geometry": {"type": "Point", "coordinates": [-78.99630645591039, -45.505762126198036]}}]}